[{"OBJECT_NAME":"RCM-3","OBJECT_ID":"2019-033B","EPOCH":"2026-03-09T03:14:06.943776","MEAN_MOTION":14.92592422,"ECCENTRICITY":0.00015095,"INCLINATION":97.7599,"RA_OF_ASC_NODE":77.0922,"ARG_OF_PERICENTER":91.0462,"MEAN_ANOMALY":269.0931,"EPHEMERIS_TYPE":0,"CLASSIFICATION_TYPE":"U","NORAD_CAT_ID":44323,"ELEMENT_SET_NO":999,"REV_AT_EPOCH":36717,"BSTAR":0.00010936663,"MEAN_MOTION_DOT":1.069e-5,"MEAN_MOTION_DDOT":0},{"OBJECT_NAME":"CZ-6A DEB","OBJECT_ID":"2024-140NG","EPOCH":"2026-03-09T13:47:43.569312","MEAN_MOTION":14.6681067,"ECCENTRICITY":0.0127148,"INCLINATION":88.7484,"RA_OF_ASC_NODE":263.5695,"ARG_OF_PERICENTER":236.7705,"MEAN_ANOMALY":122.1273,"EPHEMERIS_TYPE":0,"CLASSIFICATION_TYPE":"U","NORAD_CAT_ID":61090,"ELEMENT_SET_NO":999,"REV_AT_EPOCH":8167,"BSTAR":0.0017567,"MEAN_MOTION_DOT":0.00011088,"MEAN_MOTION_DDOT":0}]
